{
  "type": "FeatureCollection",
  "features": [
    {
      "type": "Feature",
      "properties": {
        "norad_id": 41948,
        "name": "CARTOSAT-2D",
        "group": "resource",
        "lat": 38.73093091405019,
        "lon": 45.97316407006293,
        "alt_km": 505.6108839039807,
        "timestamp": "2025-12-20T14:38:01.615989+00:00",
        "meta_object_name": "CARTOSAT-2D",
        "meta_object_id": "2017-008A",
        "meta_epoch": "2025-12-20T06:33:31.648608",
        "meta_mean_motion": 15.19326795,
        "meta_eccentricity": 0.0005364,
        "meta_inclination": 97.4386,
        "meta_ra_of_asc_node": 51.6568,
        "meta_arg_of_pericenter": 139.4841,
        "meta_mean_anomaly": 220.6794,
        "meta_ephemeris_type": 0,
        "meta_classification_type": "U",
        "meta_norad_cat_id": 41948,
        "meta_element_set_no": 999,
        "meta_rev_at_epoch": 49041,
        "meta_bstar": 8.3261632e-05,
        "meta_mean_motion_dot": 1.691e-05,
        "meta_mean_motion_ddot": 0,
        "tle_line1": "1 41948U 17008A   25354.27328297  .00001691  00000+0  83262-4 0  9992",
        "tle_line2": "2 41948  97.4386  51.6568 0005364 139.4841 220.6794 15.19326795490410"
      },
      "geometry": {
        "type": "Point",
        "coordinates": [
          45.97316407006293,
          38.73093091405019
        ]
      }
    },
    {
      "type": "Feature",
      "properties": {
        "norad_id": 42063,
        "name": "SENTINEL-2B",
        "group": "resource",
        "lat": 18.572042865836714,
        "lon": 64.04092460721557,
        "alt_km": 789.015687016672,
        "timestamp": "2025-12-20T14:38:01.616000+00:00",
        "meta_object_name": "SENTINEL-2B",
        "meta_object_id": "2017-013A",
        "meta_epoch": "2025-12-20T06:09:16.559424",
        "meta_mean_motion": 14.30813507,
        "meta_eccentricity": 0.00011783,
        "meta_inclination": 98.5715,
        "meta_ra_of_asc_node": 66.5974,
        "meta_arg_of_pericenter": 93.6675,
        "meta_mean_anomaly": 266.4643,
        "meta_ephemeris_type": 0,
        "meta_classification_type": "U",
        "meta_norad_cat_id": 42063,
        "meta_element_set_no": 999,
        "meta_rev_at_epoch": 45905,
        "meta_bstar": 5.8124692e-05,
        "meta_mean_motion_dot": 1.09e-06,
        "meta_mean_motion_ddot": 0,
        "tle_line1": "1 42063U 17013A   25354.25644166  .00000109  00000+0  58125-4 0  9994",
        "tle_line2": "2 42063  98.5715  66.5974 0001178  93.6675 266.4643 14.30813507459058"
      },
      "geometry": {
        "type": "Point",
        "coordinates": [
          64.04092460721557,
          18.572042865836714
        ]
      }
    },
    {
      "type": "Feature",
      "properties": {
        "norad_id": 42767,
        "name": "CARTOSAT-2E",
        "group": "resource",
        "lat": -51.05453216731477,
        "lon": 61.418788172234365,
        "alt_km": 515.5793181345643,
        "timestamp": "2025-12-20T14:38:01.616009+00:00",
        "meta_object_name": "CARTOSAT-2E",
        "meta_object_id": "2017-036C",
        "meta_epoch": "2025-12-20T05:22:35.691744",
        "meta_mean_motion": 15.19266509,
        "meta_eccentricity": 0.00024878,
        "meta_inclination": 97.4554,
        "meta_ra_of_asc_node": 51.7135,
        "meta_arg_of_pericenter": 201.0253,
        "meta_mean_anomaly": 159.0879,
        "meta_ephemeris_type": 0,
        "meta_classification_type": "U",
        "meta_norad_cat_id": 42767,
        "meta_element_set_no": 999,
        "meta_rev_at_epoch": 47097,
        "meta_bstar": 8.8499096e-05,
        "meta_mean_motion_dot": 1.798e-05,
        "meta_mean_motion_ddot": 0,
        "tle_line1": "1 42767U 17036C   25354.22402421  .00001798  00000+0  88499-4 0  9995",
        "tle_line2": "2 42767  97.4554  51.7135 0002487 201.0253 159.0879 15.19266509470978"
      },
      "geometry": {
        "type": "Point",
        "coordinates": [
          61.418788172234365,
          -51.05453216731477
        ]
      }
    },
    {
      "type": "Feature",
      "properties": {
        "norad_id": 42920,
        "name": "FORMOSAT-5",
        "group": "resource",
        "lat": -47.69162455267583,
        "lon": -120.39516707776842,
        "alt_km": 725.1660496961404,
        "timestamp": "2025-12-20T14:38:01.616019+00:00",
        "meta_object_name": "FORMOSAT-5",
        "meta_object_id": "2017-049A",
        "meta_epoch": "2025-12-20T03:39:08.028864",
        "meta_mean_motion": 14.50764558,
        "meta_eccentricity": 0.00098388,
        "meta_inclination": 98.2445,
        "meta_ra_of_asc_node": 68.3226,
        "meta_arg_of_pericenter": 276.342,
        "meta_mean_anomaly": 83.6654,
        "meta_ephemeris_type": 0,
        "meta_classification_type": "U",
        "meta_norad_cat_id": 42920,
        "meta_element_set_no": 999,
        "meta_rev_at_epoch": 44071,
        "meta_bstar": 4.6909305e-05,
        "meta_mean_motion_dot": 1.41e-06,
        "meta_mean_motion_ddot": 0,
        "tle_line1": "1 42920U 17049A   25354.15217626  .00000141  00000+0  46909-4 0  9994",
        "tle_line2": "2 42920  98.2445  68.3226 0009838 276.3420  83.6654 14.50764558440713"
      },
      "geometry": {
        "type": "Point",
        "coordinates": [
          -120.39516707776842,
          -47.69162455267583
        ]
      }
    },
    {
      "type": "Feature",
      "properties": {
        "norad_id": 42969,
        "name": "SENTINEL-5P",
        "group": "resource",
        "lat": 78.79034668179519,
        "lon": 164.36696651335347,
        "alt_km": 818.8907036157152,
        "timestamp": "2025-12-20T14:38:01.616031+00:00",
        "meta_object_name": "SENTINEL-5P",
        "meta_object_id": "2017-064A",
        "meta_epoch": "2025-12-20T02:20:13.366752",
        "meta_mean_motion": 14.19519194,
        "meta_eccentricity": 0.0001016,
        "meta_inclination": 98.7796,
        "meta_ra_of_asc_node": 292.6165,
        "meta_arg_of_pericenter": 90.4056,
        "meta_mean_anomaly": 269.7237,
        "meta_ephemeris_type": 0,
        "meta_classification_type": "U",
        "meta_norad_cat_id": 42969,
        "meta_element_set_no": 999,
        "meta_rev_at_epoch": 42415,
        "meta_bstar": 4.0477719e-05,
        "meta_mean_motion_dot": 4.1e-07,
        "meta_mean_motion_ddot": 0,
        "tle_line1": "1 42969U 17064A   25354.09737693  .00000041  00000+0  40478-4 0  9992",
        "tle_line2": "2 42969  98.7796 292.6165 0001016  90.4056 269.7237 14.19519194424157"
      },
      "geometry": {
        "type": "Point",
        "coordinates": [
          164.36696651335347,
          78.79034668179519
        ]
      }
    },
    {
      "type": "Feature",
      "properties": {
        "norad_id": 42987,
        "name": "SKYSAT-C11",
        "group": "resource",
        "lat": -53.14727240508892,
        "lon": -57.7074163321684,
        "alt_km": 430.8920669057543,
        "timestamp": "2025-12-20T14:38:01.616041+00:00",
        "meta_object_name": "SKYSAT-C11",
        "meta_object_id": "2017-068A",
        "meta_epoch": "2025-12-20T02:45:55.725120",
        "meta_mean_motion": 15.47740992,
        "meta_eccentricity": 0.0001158,
        "meta_inclination": 97.4144,
        "meta_ra_of_asc_node": 131.7912,
        "meta_arg_of_pericenter": 100.7649,
        "meta_mean_anomaly": 259.3731,
        "meta_ephemeris_type": 0,
        "meta_classification_type": "U",
        "meta_norad_cat_id": 42987,
        "meta_element_set_no": 999,
        "meta_rev_at_epoch": 45545,
        "meta_bstar": 0.00030942,
        "meta_mean_motion_dot": 0.00015943,
        "meta_mean_motion_ddot": 0,
        "tle_line1": "1 42987U 17068A   25354.11522830  .00015943  00000+0  30942-3 0  9995",
        "tle_line2": "2 42987  97.4144 131.7912 0001158 100.7649 259.3731 15.47740992455458"
      },
      "geometry": {
        "type": "Point",
        "coordinates": [
          -57.7074163321684,
          -53.14727240508892
        ]
      }
    },
    {
      "type": "Feature",
      "properties": {
        "norad_id": 42988,
        "name": "SKYSAT-C10",
        "group": "resource",
        "lat": -56.05970475943474,
        "lon": -65.69252467498698,
        "alt_km": 479.6842966805625,
        "timestamp": "2025-12-20T14:38:01.616052+00:00",
        "meta_object_name": "SKYSAT-C10",
        "meta_object_id": "2017-068B",
        "meta_epoch": "2025-12-20T02:37:56.935200",
        "meta_mean_motion": 15.32208744,
        "meta_eccentricity": 0.00054416,
        "meta_inclination": 97.4263,
        "meta_ra_of_asc_node": 124.9815,
        "meta_arg_of_pericenter": 83.4848,
        "meta_mean_anomaly": 276.7013,
        "meta_ephemeris_type": 0,
        "meta_classification_type": "U",
        "meta_norad_cat_id": 42988,
        "meta_element_set_no": 999,
        "meta_rev_at_epoch": 45492,
        "meta_bstar": 0.00024785941,
        "meta_mean_motion_dot": 7.632e-05,
        "meta_mean_motion_ddot": 0,
        "tle_line1": "1 42988U 17068B   25354.10968675  .00007632  00000+0  24786-3 0  9991",
        "tle_line2": "2 42988  97.4263 124.9815 0005441  83.4848 276.7013 15.32208744454929"
      },
      "geometry": {
        "type": "Point",
        "coordinates": [
          -65.69252467498698,
          -56.05970475943474
        ]
      }
    }
  ]
}